      2.10          N: GNSS NAV DATA                        RINEX VERSION / TYPE
fic2rin                                 01/25/2019 00:19:36 PGM / RUN BY / DATE
                                                            END OF HEADER
17 19  1 24  9 59 28.0-2.793967723846e-07 5.343281372916e-12 0.000000000000e+00
    7.000000000000e+00 1.004375000000e+02 4.129457722775e-09-2.641859036033e-02
    5.109235644341e-06 1.301550888456e-02 7.638707756996e-06 5.153681299210e+03
    3.815680000000e+05-2.402812242508e-07-1.726034477110e+00 1.229345798492e-07
    9.835852200553e-01 2.487812500000e+02-1.730036620135e+00-8.166411592393e-09
    4.010881355022e-10 1.000000000000e+00 2.037000000000e+03 0.000000000000e+00
    2.400000000000e+00 0.000000000000e+00-1.117587089539e-08 7.000000000000e+00
    3.744060000000e+05 4.000000000000e+00
 8 19  1 24  9 59 44.0-1.302002929151e-04-1.364242052659e-12 0.000000000000e+00
    1.000000000000e+01 8.993750000000e+01 4.243033882249e-09 3.636548342664e-01
    4.703179001808e-06 4.175204783678e-03 7.944181561470e-06 5.153689495087e+03
    3.815840000000e+05 4.284083843231e-08-1.791881104503e+00-8.009374141693e-08
    9.699206962216e-01 2.306562500000e+02-3.764054366030e-01-8.111052143593e-09
    3.453715289676e-10 1.000000000000e+00 2.037000000000e+03 0.000000000000e+00
    2.400000000000e+00 0.000000000000e+00 5.122274160385e-09 1.000000000000e+01
    3.744060000000e+05 4.000000000000e+00
32 19  1 24  9 59 44.0-2.603423781693e-04 1.762145984685e-11 0.000000000000e+00
    9.000000000000e+00 2.968750000000e+01 4.708410409907e-09 7.831331843891e-01
    1.631677150726e-06 2.479807706550e-03 1.022033393383e-05 5.153748111725e+03
    3.815840000000e+05 5.774199962616e-08 1.355679516076e+00 5.587935447693e-09
    9.565063430828e-01 1.806562500000e+02-2.631284081075e+00-8.129624345771e-09
    3.968022426918e-10 1.000000000000e+00 2.037000000000e+03 0.000000000000e+00
    2.400000000000e+00 0.000000000000e+00 4.656612873077e-10 9.000000000000e+00
    3.744060000000e+05 4.000000000000e+00
29 19  1 24  9 59 44.0 2.863015979528e-04-8.526512829121e-12 0.000000000000e+00
    3.100000000000e+01 1.097812500000e+02 3.948735909272e-09 7.663768329341e-01
    5.602836608887e-06 6.346540758386e-04 8.231028914452e-06 5.153576620102e+03
    3.815840000000e+05 2.607703208923e-08-1.715078863553e+00 2.607703208923e-08
    9.849820683653e-01 2.301250000000e+02 1.491513962789e+00-7.977832308738e-09
    4.685909472653e-10 1.000000000000e+00 2.037000000000e+03 0.000000000000e+00
    2.400000000000e+00 0.000000000000e+00-1.024454832077e-08 3.100000000000e+01
    3.744060000000e+05 4.000000000000e+00
28 19  1 24  9 59 44.0 7.628253661096e-04 1.023181539495e-12 0.000000000000e+00
    9.300000000000e+01 5.312500000000e+00 3.865518157204e-09 8.562854037698e-01
    1.825392246246e-07 1.939357246738e-02 1.172535121441e-05 5.153701246262e+03
    3.815840000000e+05-2.514570951462e-07-2.736493313565e+00-2.030283212662e-07
    9.838134455161e-01 1.698125000000e+02-1.477373183049e+00-7.967831892180e-09
   -3.668009930194e-10 1.000000000000e+00 2.037000000000e+03 0.000000000000e+00
    2.400000000000e+00 0.000000000000e+00-1.117587089539e-08 9.300000000000e+01
    3.744060000000e+05 4.000000000000e+00
 3 19  1 24 10  0  0.0 1.791696995497e-04 2.273736754432e-12 0.000000000000e+00
    5.000000000000e+00-9.409375000000e+01 4.321608583773e-09 3.064225274219e+00
   -4.969537258148e-06 1.891239196993e-03 1.024268567562e-05 5.153602596283e+03
    3.816000000000e+05-8.940696716309e-08 3.170346311364e-01-6.332993507385e-08
    9.626453412881e-01 1.805625000000e+02 6.603221786235e-01-7.965688945775e-09
   -1.967939115420e-10 1.000000000000e+00 2.037000000000e+03 0.000000000000e+00
    2.400000000000e+00 0.000000000000e+00 2.328306436539e-09 5.000000000000e+00
    3.744060000000e+05 4.000000000000e+00
 2 19  1 24 10  0  0.0-1.214621588588e-04-1.000444171950e-11 0.000000000000e+00
    4.000000000000e+01-2.406250000000e+01 5.118784646498e-09-1.848420237459e+00
   -8.232891559601e-07 1.881074521225e-02 9.760260581970e-07 5.153636653900e+03
    3.816000000000e+05 2.831220626831e-07-7.914512912374e-01 1.341104507446e-07
    9.532212873899e-01 3.518437500000e+02-1.784916689882e+00-8.513568910032e-09
    1.042900583853e-10 1.000000000000e+00 2.037000000000e+03 0.000000000000e+00
    2.400000000000e+00 0.000000000000e+00-2.048909664154e-08 4.000000000000e+01
    3.744060000000e+05 4.000000000000e+00
 5 19  1 24 10  0  0.0 9.126961231232e-07 1.136868377216e-13 0.000000000000e+00
    5.500000000000e+01-1.112187500000e+02 4.739483132782e-09 7.609616295406e-01
   -5.530193448067e-06 5.568299442530e-03 1.082569360733e-05 5.153623142242e+03
    3.816000000000e+05 2.048909664154e-08 2.918965680808e-01 7.264316082001e-08
    9.495272407637e-01 1.638437500000e+02 7.180817641535e-01-8.271058808513e-09
   -3.300137463972e-10 1.000000000000e+00 2.037000000000e+03 0.000000000000e+00
    2.400000000000e+00 0.000000000000e+00-1.117587089539e-08 5.500000000000e+01
    3.744060000000e+05 4.000000000000e+00
 4 19  1 24 10  0  0.0 9.367847815156e-05 1.205080479849e-11 0.000000000000e+00
    1.980000000000e+02 4.721875000000e+01 4.594477092698e-09-3.004728362288e+00
    2.363696694374e-06 3.043372416869e-04 9.831041097641e-06 5.153591930389e+03
    3.816000000000e+05-6.705522537231e-08 1.393851771064e+00 3.725290298462e-09
    9.595687382553e-01 1.881875000000e+02-1.492465311582e+00-8.012833766689e-09
    4.260891768959e-10 1.000000000000e+00 2.037000000000e+03 0.000000000000e+00
    2.400000000000e+00 6.300000000000e+01-8.847564458847e-09 1.980000000000e+02
    3.744060000000e+05 4.000000000000e+00
18 19  1 24 10  0  0.0 1.895101740956e-05 3.865352482535e-12 0.000000000000e+00
    7.000000000000e+00-2.453125000000e+01 5.064496670900e-09-2.372739469003e+00
   -1.214444637299e-06 1.499454712030e-02 1.562759280205e-06 5.153601066589e+03
    3.816000000000e+05 2.104789018631e-07-7.777271388628e-01 9.126961231232e-08
    9.526135034447e-01 3.418125000000e+02 1.369454961285e+00-8.438208628117e-09
    1.421487782100e-10 1.000000000000e+00 2.037000000000e+03 0.000000000000e+00
    2.400000000000e+00 0.000000000000e+00-6.053596735001e-09 7.000000000000e+00
    3.744060000000e+05 4.000000000000e+00
24 19  1 24 10  0  0.0-6.122794002295e-05-5.684341886081e-13 0.000000000000e+00
    2.400000000000e+01-3.125000000000e-01 5.423797351502e-09-1.847090858931e+00
   -2.607703208923e-08 8.104051812552e-03 4.563480615616e-06 5.153721126556e+03
    3.816000000000e+05 1.117587089539e-08 2.362718105653e+00-1.378357410431e-07
    9.393539914071e-01 2.798125000000e+02 5.842029039045e-01-8.523569326590e-09
   -3.785871982478e-11 1.000000000000e+00 2.037000000000e+03 0.000000000000e+00
    2.400000000000e+00 0.000000000000e+00 2.793967723846e-09 2.400000000000e+01
    3.744060000000e+05 4.000000000000e+00
22 19  1 24 10  0  0.0-6.298664957285e-04-8.526512829121e-12 0.000000000000e+00
    5.300000000000e+01-9.909375000000e+01 5.257004689632e-09-7.623514134192e-01
   -5.176290869713e-06 7.109547848813e-03 9.555369615555e-06 5.153603210449e+03
    3.816000000000e+05-1.434236764908e-07 2.485385801038e-01-4.284083843231e-08
    9.269986944051e-01 1.765312500000e+02-1.429108826770e+00-8.598215293037e-09
   -1.657211886670e-10 1.000000000000e+00 2.037000000000e+03 0.000000000000e+00
    2.400000000000e+00 0.000000000000e+00-1.816079020500e-08 5.300000000000e+01
    3.744060000000e+05 4.000000000000e+00
16 19  1 24 10  0  0.0-1.470372080803e-05-2.387423592154e-12 0.000000000000e+00
    7.000000000000e+01 2.218750000000e+00 3.761942414287e-09 9.119217553500e-01
    3.073364496231e-07 1.048439240549e-02 1.130439341068e-05 5.153766952515e+03
    3.816000000000e+05-1.676380634308e-07-2.740530872374e+00 1.173466444016e-07
    9.848952924536e-01 1.756250000000e+02 5.310592008845e-01-7.710678323559e-09
   -4.596620039104e-10 1.000000000000e+00 2.037000000000e+03 0.000000000000e+00
    2.400000000000e+00 0.000000000000e+00-1.071020960808e-08 7.000000000000e+01
    3.744060000000e+05 4.000000000000e+00
13 19  1 24 10  0  0.0-7.724063470960e-05 1.250555214938e-12 0.000000000000e+00
    8.000000000000e+01 4.781250000000e+01 4.515902391175e-09-1.103293024012e+00
    2.425163984299e-06 3.745102789253e-03 9.644776582718e-06 5.153664104462e+03
    3.816000000000e+05-1.303851604462e-08 1.484963359416e+00 1.173466444016e-07
    9.676776551328e-01 1.953125000000e+02 1.378493258314e+00-8.079622262984e-09
    4.753769442150e-10 1.000000000000e+00 2.037000000000e+03 0.000000000000e+00
    2.400000000000e+00 0.000000000000e+00-1.117587089539e-08 8.000000000000e+01
    3.744060000000e+05 4.000000000000e+00
27 19  1 24 10  0  0.0-5.460157990456e-05-6.821210263297e-12 0.000000000000e+00
    8.900000000000e+01 8.740625000000e+01 4.160173287916e-09 2.137822022583e-02
    4.645437002182e-06 6.531164166518e-03 8.232891559601e-06 5.153634208679e+03
    3.816000000000e+05 7.264316082001e-08-1.781492614547e+00 2.980232238770e-08
    9.781680461111e-01 2.307500000000e+02 4.224529921542e-01-8.071764792831e-09
    3.432285825624e-10 1.000000000000e+00 2.037000000000e+03 0.000000000000e+00
    2.400000000000e+00 0.000000000000e+00 1.396983861923e-09 8.900000000000e+01
    3.744060000000e+05 4.000000000000e+00
14 19  1 24 10  0  0.0-9.263539686799e-05 6.821210263297e-13 0.000000000000e+00
    6.000000000000e+01 3.128125000000e+01 4.741983236921e-09-2.304666556784e-01
    1.728534698486e-06 1.005802920554e-02 9.564682841301e-06 5.153662504196e+03
    3.816000000000e+05-4.097819328308e-08 1.441389209200e+00 6.705522537231e-08
    9.602638452436e-01 1.973750000000e+02-1.948455781164e+00-8.291059641628e-09
    4.168030758068e-10 1.000000000000e+00 2.037000000000e+03 0.000000000000e+00
    2.400000000000e+00 0.000000000000e+00-9.778887033463e-09 6.000000000000e+01
    3.744060000000e+05 4.000000000000e+00
